NOAA 15                 
1 25338U 98030A   17324.56504712  .00000030  00000-0  31286-4 0  9995
2 25338  98.7788 335.7669 0011532 111.1318 249.1095 14.25826666 15290
NOAA 18                 
1 28654U 05018A   17324.61786187 -.00000002  00000-0  24494-4 0  9990
2 28654  99.1702 350.5658 0014155 356.8269   3.2810 14.12357642644241
METOP-A                 
1 29499U 06044A   17324.63629666  .00000035  00000-0  35605-4 0  9999
2 29499  98.6588  21.4784 0002078  93.9846  30.0741 14.21515936575189
NOAA 19                 
1 33591U 09005A   17324.56460859  .00000118  00000-0  89101-4 0  9998
2 33591  99.1145 293.7716 0013701 188.9784 171.1144 14.12230279452465
METOP-B                 
1 38771U 12049A   17324.81357061  .00000031  00000-0  34270-4 0  9994
2 38771  98.7037  22.5467 0001844 131.8986 339.7597 14.21486833268527
SARAL                   
1 39086U 13009A   17324.61548278 -.00000008  00000-0  13326-4 0  9995
2 39086  98.5382 149.7725 0001877 116.9796 243.1580 14.32016480247498
